QIANFAN-57              
1 62787U 25016C   25208.91634651  .00000120  00000+0  16753-3 0  9993
2 62787  88.9859 117.4042 0002081  91.9716 268.1673 13.50955106 28594
QIANFAN-58              
1 62788U 25016D   25209.55418190  .00000152  00000+0  21688-3 0  9991
2 62788  88.9827 117.2134 0015411  26.6793 333.5148 13.50954295 28728
QIANFAN-59              
1 62789U 25016E   25209.49252907  .00000145  00000+0  20575-3 0  9993
2 62789  88.9851 117.2577 0016404  29.3898 330.8172 13.50958705 28712
QIANFAN-60              
1 62790U 25016F   25209.55817796  .00000140  00000+0  19742-3 0  9994
2 62790  88.9832 117.2565 0016807  26.9912 333.2109 13.50967009 28700
QIANFAN-61              
1 62791U 25016G   25208.90412372  .00000151  00000+0  21594-3 0  9994
2 62791  88.9901 117.3876 0016261  27.7750 332.4266 13.50956446 28637
QIANFAN-62              
1 62792U 25016H   25208.90805787  .00000141  00000+0  19979-3 0  9994
2 62792  88.9847 117.3302 0017670  27.5627 332.6457 13.50955310 28629
QIANFAN-63              
1 62793U 25016J   25208.92040275  .00000173  00000+0  24948-3 0  9997
2 62793  88.9853 117.2683 0017587  31.7247 328.4960 13.50952456 28664
QIANFAN-64              
1 62794U 25016K   25208.83808871  .00000142  00000+0  20182-3 0  9994
2 62794  88.9840 117.2753 0015271  27.0542 333.1402 13.50961019 28640
